NORAD_CAT_ID,OBJECT_NAME,OBJECT_TYPE,EPOCH,MEAN_MOTION,ECCENTRICITY,INCLINATION,RA_OF_ASC_NODE,ARG_OF_PERICENTER,MEAN_ANOMALY,BSTAR,MEAN_MOTION_DOT,MEAN_MOTION_DDOT,TLE_LINE0,TLE_LINE1,TLE_LINE2,SEMIMAJOR_AXIS,PERIOD,APOGEE,PERIGEE,DECAYED
53172.0,STARLINK-4299,PAYLOAD,2022-11-06 04:09:38,15.08815364,0.000178,53.2147,233.7337,52.9445,307.171,-0.00036097,-6.024e-05,0.0,0 STARLINK-4299,1 53172U 22083AS  22310.17335992 -.00006024  00000-0 -36097-3 0  9992,2 53172  53.2147 233.7337 0001780  52.9445 307.1710 15.08815364 17957,6917.956,95.439,541.052,538.589,0.0
53172.0,STARLINK-4299,PAYLOAD,2022-11-06 12:06:34,15.08818685,0.0001932,53.2149,232.2474,49.7664,310.3497,-0.0001794,-3.141e-05,0.0,0 STARLINK-4299,1 53172U 22083AS  22310.50456375 -.00003141  00000-0 -17940-3 0  9991,2 53172  53.2149 232.2474 0001932  49.7664 310.3497 15.08818685 17363,6917.946,95.439,541.1469999999998,538.474,0.0
53172.0,STARLINK-4299,PAYLOAD,2022-11-06 18:28:07,15.08821413,0.0001896,53.2153,231.0584,56.8098,303.3076,-2.3431e-05,-6.61e-06,0.0,0 STARLINK-4299,1 53172U 22083AS  22310.76952684 -.00000661  00000-0 -23431-4 0  9990,2 53172  53.2153 231.0584 0001896  56.8098 303.3076 15.08821413 18040,6917.937,95.439,541.114,538.491,0.0
53172.0,STARLINK-4299,PAYLOAD,2022-11-07 18:18:54,15.08852263,0.000181,53.2138,226.5977,52.1551,307.9604,0.00096865,0.00015167,0.0,0 STARLINK-4299,1 53172U 22083AS  22311.76313321  .00015167  00000-0  96865-3 0  9995,2 53172  53.2138 226.5977 0001810  52.1551 307.9604 15.08852263 18197,6917.843000000003,95.437,540.96,538.456,0.0
53172.0,STARLINK-4299,PAYLOAD,2022-11-08 00:40:26,15.08869058,0.0001825,53.2139,225.4084,53.1108,307.0051,0.0012824,0.00020197,0.0,0 STARLINK-4299,1 53172U 22083AS  22312.02808790  .00020197  00000-0  12824-2 0  9995,2 53172  53.2139 225.4084 0001825  53.1108 307.0051 15.08869058 18232,6917.792,95.436,540.919,538.394,0.0
53172.0,STARLINK-4299,PAYLOAD,2022-11-08 18:09:39,15.08897067,0.0001869,53.2141,222.1376,55.2797,304.8371,0.00099661,0.00015633,0.0,0 STARLINK-4299,1 53172U 22083AS  22312.75670590  .00015633  00000-0  99661-3 0  9994,2 53172  53.2141 222.1376 0001869  55.2797 304.8371 15.08897067 17700,6917.706,95.434,540.864,538.278,0.0
53172.0,STARLINK-4299,PAYLOAD,2022-11-08 22:55:48,15.08893149,0.0001827,53.214,221.2448,50.1713,309.944,0.00067581,0.00010499,0.0,0 STARLINK-4299,1 53172U 22083AS  22312.95541976  .00010499  00000-0  67581-3 0  9992,2 53172  53.2140 221.2448 0001827  50.1713 309.9440 15.08893149 18379,6917.718000000003,95.434,540.847,538.319,0.0
53172.0,STARLINK-4299,PAYLOAD,2022-11-09 21:11:11,15.08858523,0.0001339,53.214,217.0817,78.0373,282.077,0.0001597,2.256e-05,0.0,0 STARLINK-4299,1 53172U 22083AS  22313.88277237  .00002256  00000-0  15970-3 0  9998,2 53172  53.2140 217.0817 0001339  78.0373 282.0770 15.08858523 17879,6917.824000000001,95.436,540.615,538.762,0.0
53172.0,STARLINK-4299,PAYLOAD,2022-11-09 22:46:34,15.08832935,0.0001446,53.2141,216.7845,89.3814,270.7343,-0.0008234999999999,-0.00013367,0.0,0 STARLINK-4299,1 53172U 22083AS  22313.94901118 -.00013367  00000-0 -82350-3 0  9990,2 53172  53.2141 216.7845 0001446  89.3814 270.7343 15.08832935 18523,6917.901999999999,95.438,540.7669999999998,538.7669999999998,0.0
53172.0,STARLINK-4299,PAYLOAD,2022-11-10 05:08:08,15.08808892,0.0001844,53.2134,215.595,47.4419,312.6728,-0.00067135,-0.00010948,0.0,0 STARLINK-4299,1 53172U 22083AS  22314.21398189 -.00010948  00000-0 -67135-3 0  9995,2 53172  53.2134 215.5950 0001844  47.4419 312.6728 15.08808892 17928,6917.975,95.44,541.116,538.565,0.0
53172.0,STARLINK-4299,PAYLOAD,2022-11-10 21:02:00,15.08820147,0.0001864,53.2141,212.6209,50.74100000000001,309.3747,0.00088442,0.00013808,0.0,0 STARLINK-4299,1 53172U 22083AS  22314.87639705  .00013808  00000-0  88442-3 0  9999,2 53172  53.2141 212.6209 0001864  50.7410 309.3747 15.08820147 18024,6917.941,95.439,541.096,538.5169999999998,0.0
53172.0,STARLINK-4299,PAYLOAD,2022-11-11 01:48:10,15.08829498,0.0001912,53.2135,211.7291,47.9382,312.1773,0.0010319,0.00016168,0.0,0 STARLINK-4299,1 53172U 22083AS  22315.07511870  .00016168  00000-0  10319-2 0  9993,2 53172  53.2135 211.7291 0001912  47.9382 312.1773 15.08829498 18690,6917.9119999999975,95.438,541.1,538.455,0.0
53172.0,STARLINK-4299,PAYLOAD,2022-11-11 09:45:05,15.08837588,0.0001904,53.2133,210.2424,48.995,311.1206,0.00085428,0.00013333,0.0,0 STARLINK-4299,1 53172U 22083AS  22315.40631931  .00013333  00000-0  85428-3 0  9996,2 53172  53.2133 210.2424 0001904  48.9950 311.1206 15.08837588 18108,6917.888000000001,95.438,541.07,538.436,0.0
53172.0,STARLINK-4299,PAYLOAD,2022-11-11 20:52:48,15.08829803,0.0001914,53.2131,208.1626,54.4626,305.6544,0.00024703,3.644e-05,0.0,0 STARLINK-4299,1 53172U 22083AS  22315.87000621  .00003644  00000-0  24703-3 0  9996,2 53172  53.2131 208.1626 0001914  54.4626 305.6544 15.08829803 18170,6917.9119999999975,95.438,541.101,538.452,0.0
53172.0,STARLINK-4299,PAYLOAD,2022-11-12 03:14:20,15.08849305,0.0001964,53.2138,206.9715,49.9011,310.2153,0.0010508,0.00016479,0.0,0 STARLINK-4299,1 53172U 22083AS  22316.13496511  .00016479  00000-0  10508-2 0  9990,2 53172  53.2138 206.9715 0001964  49.9011 310.2153 15.08849305 18856,6917.852,95.437,541.076,538.3580000000002,0.0
53172.0,STARLINK-4299,PAYLOAD,2022-11-12 09:35:53,15.08853231,0.0001982,53.2134,205.7818,50.569,309.5478,0.00098658,0.00015454,0.0,0 STARLINK-4299,1 53172U 22083AS  22316.39992408  .00015454  00000-0  98658-3 0  9999,2 53172  53.2134 205.7818 0001982  50.5690 309.5478 15.08853231 18252,6917.84,95.437,541.076,538.3340000000002,0.0
53172.0,STARLINK-4299,PAYLOAD,2022-11-13 01:29:45,15.08831003,0.0001652,53.2128,202.8089,51.8273,308.2868,-1.1304e-07,-2.9e-06,0.0,0 STARLINK-4299,1 53172U 22083AS  22317.06232890 -.00000290  00000-0 -11304-6 0  9996,2 53172  53.2128 202.8089 0001652  51.8273 308.2868 15.08831003 18991,6917.908,95.438,540.9159999999998,538.63,0.0
53172.0,STARLINK-4299,PAYLOAD,2022-11-13 09:26:40,15.08837369,0.0001656,53.2127,201.3226,52.6448,307.4695,0.0001723,2.455e-05,0.0,0 STARLINK-4299,1 53172U 22083AS  22317.39352900  .00002455  00000-0  17230-3 0  9991,2 53172  53.2127 201.3226 0001656  52.6448 307.4695 15.08837369 18400,6917.888000000001,95.438,540.899,538.6080000000002,0.0
53172.0,STARLINK-4299,PAYLOAD,2022-11-13 17:23:36,15.08833824,0.0001956,53.2149,199.8341,54.4361,305.6813,3.4248e-06,-2.34e-06,0.0,0 STARLINK-4299,1 53172U 22083AS  22317.72473257 -.00000234  00000-0  34248-5 0  9991,2 53172  53.2149 199.8341 0001956  54.4361 305.6813 15.08833824 18459,6917.899,95.438,541.117,538.411,0.0
53172.0,STARLINK-4299,PAYLOAD,2022-11-14 09:17:28,15.08839237,0.0001854,53.2146,196.8607,54.2439,305.8725,0.00017,2.418e-05,0.0,0 STARLINK-4299,1 53172U 22083AS  22318.38713411  .00002418  00000-0  17000-3 0  9993,2 53172  53.2146 196.8607 0001854  54.2439 305.8725 15.08839237 19199,6917.8830000000025,95.438,541.03,538.465,0.0
53172.0,STARLINK-4299,PAYLOAD,2022-11-15 09:08:15,15.088397699999998,0.0001786,53.2144,192.4022,49.5018,310.6129,0.00012646,1.725e-05,0.0,0 STARLINK-4299,1 53172U 22083AS  22319.38073467  .00001725  00000-0  12646-3 0  9995,2 53172  53.2144 192.4022 0001786  49.5018 310.6129 15.08839770 18704,6917.880999999999,95.438,540.982,538.511,0.0
53172.0,STARLINK-4299,PAYLOAD,2022-11-15 15:29:48,15.08840374,0.00018,53.2155,191.2113,52.51300000000001,307.6026,0.00015317,2.15e-05,0.0,0 STARLINK-4299,1 53172U 22083AS  22319.64569496  .00002150  00000-0  15317-3 0  9997,2 53172  53.2155 191.2113 0001800  52.5130 307.6026 15.08840374 19389,6917.879,95.438,540.989,538.499,0.0
53172.0,STARLINK-4299,PAYLOAD,2022-11-15 20:15:57,15.08845765,0.0001875,53.2161,190.3193,54.3309,305.7857,0.0002163,3.157e-05,0.0,0 STARLINK-4299,1 53172U 22083AS  22319.84441203  .00003157  00000-0  21630-3 0  9997,2 53172  53.2161 190.3193 0001875  54.3309 305.7857 15.08845765 18776,6917.863,95.437,541.025,538.431,0.0
53172.0,STARLINK-4299,PAYLOAD,2022-11-15 21:51:19,15.08864768,0.000187,53.2157,190.0227,48.6582,311.4571,-0.00029299,-4.951e-05,0.0,0 STARLINK-4299,1 53172U 22083AS  22319.91064065 -.00004951  00000-0 -29299-3 0  9996,2 53172  53.2157 190.0227 0001870  48.6582 311.4571 15.08864768 19424,6917.805,95.436,540.9630000000002,538.376,0.0
53172.0,STARLINK-4299,PAYLOAD,2022-11-16 08:59:01,15.08854869,0.0002061,53.215,187.9404,53.3829,306.7352,0.00029931,4.481e-05,0.0,0 STARLINK-4299,1 53172U 22083AS  22320.37432558  .00004481  00000-0  29931-3 0  9993,2 53172  53.2150 187.9404 0002061  53.3829 306.7352 15.08854869 19491,6917.835,95.437,541.126,538.274,0.0
53172.0,STARLINK-4299,PAYLOAD,2022-11-16 18:31:23,15.08786619,0.0001190999999999,53.2153,186.1559,66.3922,293.7195,0.0020266,0.00032065,0.0,0 STARLINK-4299,1 53172U 22083AS  22320.77180506  .00032065  00000-0  20266-2 0  9990,2 53172  53.2153 186.1559 0001191  66.3922 293.7195 15.08786619 19551,6918.044,95.441,540.732,539.085,0.0
53172.0,STARLINK-4299,PAYLOAD,2022-11-16 20:06:43,15.08847131,0.0002004,53.2152,185.8588,56.6245,303.4939,5.1194e-05,5.27e-06,0.0,0 STARLINK-4299,1 53172U 22083AS  22320.83800626  .00000527  00000-0  51194-4 0  9993,2 53172  53.2152 185.8588 0002004  56.6245 303.4939 15.08847131 18924,6917.859,95.437,541.11,538.337,0.0
53172.0,STARLINK-4299,PAYLOAD,2022-11-17 00:52:53,15.08842859,0.0001937,53.2161,184.9662,58.7205,301.3977,0.00012588,1.716e-05,0.0,0 STARLINK-4299,1 53172U 22083AS  22321.03672672  .00001716  00000-0  12588-3 0  9998,2 53172  53.2161 184.9662 0001937  58.7205 301.3977 15.08842859 19595,6917.871999999999,95.437,541.077,538.3969999999998,0.0
53172.0,STARLINK-4299,PAYLOAD,2022-11-17 13:35:59,15.08832635,0.0001886,53.2159,182.5866,59.6342,300.4837,-1.1075e-05,-4.64e-06,0.0,0 STARLINK-4299,1 53172U 22083AS  22321.56665658 -.00000464  00000-0 -11075-4 0  9994,2 53172  53.2159 182.5866 0001886  59.6342 300.4837 15.08832635 19032,6917.903,95.438,541.073,538.4630000000002,0.0
